QUETZAL-1               
1 45598U 98067RL  20337.89463100  .00019603  00000-0  31172-3 0  9993
2 45598  51.6405 230.6821 0001832  18.2380 341.8676 15.53308137 33942
RED-EYE 2 (MERLOT)      
1 45800U 98067RM  20337.86367021  .00009213  00000-0  16318-3 0  9992
2 45800  51.6412 232.7157 0000376 319.5923  40.5038 15.51035894 26158
RED-EYE 3 (CABERNET)    
1 45809U 98067RN  20338.12188074  .00009753  00000-0  17227-3 0  9999
2 45809  51.6413 231.4405 0000509 274.7343  85.3589 15.51038089 25174
DEMI                    
1 45916U 98067RP  20337.85950342  .00021550  00000-0  34967-3 0  9991
2 45916  51.6411 231.9452 0002452 183.4914 176.6059 15.52678674 22137
TECHEDSAT 10            
1 45917U 98067RQ  20337.89984810  .00098041  00000-0  11205-2 0  9991
2 45917  51.6374 228.4589 0005372 192.0504 168.0362 15.61363101 22131
PROGRESS-MS 15          
1 45937U 20050A   20337.50798611  .00004773  00000-0  94292-4 0  9998
2 45937  51.6465 235.6110 0001940 102.9168 243.1856 15.49137064258101
CYGNUS NG-14            
1 46530U 20069A   20337.50798611  .00004773  00000-0  94292-4 0  9998
2 46530  51.6465 235.6110 0001940 102.9168 243.1856 15.49137064  9374
SOYUZ-MS 17             
1 46613U 20072A   20337.50798611  .00004773  00000-0  94292-4 0  9994
2 46613  51.6465 235.6110 0001940 102.9168 243.1856 15.49137064  7644
CREW DRAGON 1           
1 46920U 20084A   20337.50798611  .00004773  00000-0  94292-4 0  9998
2 46920  51.6465 235.6110 0001940 102.9168 243.1856 15.49137064  2550
SPOC                    
1 46921U 98067RR  20337.81146815  .00013314  00000-0  23496-3 0  9990
2 46921  51.6425 233.8670 0003009  78.9454 281.1873 15.50707297  4316
BOBCAT-1                
1 46922U 98067RS  20337.81058262  .00018254  00000-0  31715-3 0  9990
2 46922  51.6426 233.8615 0002837  85.0019 275.1294 15.50875294  4279
NEUTRON-1               
1 46923U 98067RT  20338.19961795  .00013161  00000-0  23300-3 0  9990
2 46923  51.6423 231.9593 0002986  91.1701 268.9630 15.50627239  4393
DESCENT                 
1 46924U 98067RU  20337.74567891  .00028418  00000-0  48455-3 0  9999
2 46924  51.6420 234.1782 0003277 117.3197 242.8127 15.51118174  4307
LEMUR-2-BAXTER-OLIVER   
1 46925U 98067RV  20337.80921811  .00033252  00000-0  56000-3 0  9990
2 46925  51.6422 233.8528 0003239 120.6538 239.4771 15.51383389  4273
LEMUR-2-DJARA           
1 46926U 98067RW  20337.81007781  .00028903  00000-0  49117-3 0  9991
2 46926  51.6423 233.8582 0002772 107.8284 252.3008 15.51204693  4290
SAT-LLA                 
1 46927U 98067RX  20338.13641551  .00013154  00000-0  23334-3 0  9992
2 46927  51.6422 232.2868 0003205 107.0391 253.0949 15.50570933  4297
